[ {"name": "STARLINK-1172", "line1": "1 45074U 20006AG  26136.17248653  .00036636  00000+0  10258-2 0  9993", "line2": "2 45074  53.1551 302.8803 0002237 209.3822 150.7056 15.36307375347228"}, {"name": "STARLINK-1153", "line1": "1 45080U 20006AN  26136.44414965  .00052822  00000+0  15148-2 0  9999", "line2": "2 45080  53.1593 302.0221 0003107 225.1096 134.9656 15.35394187347263"}, {"name": "STARLINK-1151", "line1": "1 45081U 20006AP  26136.62437424  .00069829  00000+0  47116-3 0  9991", "line2": "2 45081  53.0515 263.9493 0002449 261.8275  98.2466 15.74476833347798"}, {"name": "STARLINK-1185", "line1": "1 45087U 20006AV  26136.38181392  .00061509  00000+0  13495-2 0  9999", "line2": "2 45087  53.1606 283.7588 0002505 293.4455  66.6288 15.43499907347519"}, {"name": "STARLINK-1183", "line1": "1 45088U 20006AW  26136.44770633  .00050417  00000+0  15563-2 0  9993", "line2": "2 45088  53.1604 287.4584 0001958 301.4023  58.6788 15.33090455347461"}, {"name": "STARLINK-1152", "line1": "1 45096U 20006BE  26136.56281794  .00032008  00000+0  64550-3 0  9997", "line2": "2 45096  53.0354 244.3308 0002837  11.3160 348.7909 15.46275535348066"}, {"name": "STARLINK-1184", "line1": "1 45098U 20006BG  26135.89603719  .00016513  00000+0  93140-3 0  9999", "line2": "2 45098  53.0535 301.1397 0002686 342.9090  17.1812 15.13302007347200"}, {"name": "STARLINK-1193", "line1": "1 45100U 20006BJ  26136.63705569  .00044398  00000+0  43473-3 0  9998", "line2": "2 45100  53.0488 258.8770 0003489 242.3442 117.7218 15.65686198347862"}, {"name": "STARLINK-1143", "line1": "1 45179U 20012B   26136.09834970  .00168125  00000+0  83222-3 0  9991", "line2": "2 45179  53.0395 355.7495 0001031 284.7965  75.2942 15.81042693346525"}, {"name": "STARLINK-1202", "line1": "1 45183U 20012F   26136.58520449  .00026170  00000+0  82188-3 0  9996", "line2": "2 45183  53.1569  83.5398 0003068  81.8434 278.2916 15.32855785345357"}, {"name": "STARLINK-1216", "line1": "1 45185U 20012H   26136.56841029  .00026515  00000+0  82548-3 0  9999", "line2": "2 45185  53.1577  83.5157 0003325  89.5124 270.6259 15.33126252345298"}, {"name": "STARLINK-1225", "line1": "1 45187U 20012K   26136.24043832  .00039934  00000+0  12383-2 0  9990", "line2": "2 45187  53.1579  85.5031 0002779  85.2272 274.9047 15.33050304345289"}, {"name": "STARLINK-1230", "line1": "1 45189U 20012M   26136.57636997  .00022301  00000+0  69931-3 0  9990", "line2": "2 45189  53.1563  83.9965 0003586  85.2523 274.8888 15.32998030342564"}, {"name": "STARLINK-1234", "line1": "1 45190U 20012N   26136.62229072  .00059656  00000+0  46136-3 0  9995", "line2": "2 45190  53.0408 350.6567 0007326 150.0494 210.0943 15.71304997346530"}, {"name": "STARLINK-1269", "line1": "1 45197U 20012V   26136.57236253  .00024747  00000+0  77361-3 0  9992", "line2": "2 45197  53.1571  83.8685 0003164  58.7282 301.4029 15.33035608345313"}, {"name": "STARLINK-1154", "line1": "1 45198U 20012W   26136.44860455  .00052839  00000+0  73229-3 0  9998", "line2": "2 45198  53.0431  44.0534 0002749  48.9210 311.2038 15.56573334345812"}, {"name": "STARLINK-1199", "line1": "1 45201U 20012Z   26136.54290054  .00024563  00000+0  76861-3 0  9994", "line2": "2 45201  53.1579  68.2676 0002671 100.5960 259.5343 15.33009608345554"}, {"name": "STARLINK-1209", "line1": "1 45206U 20012AE  26136.19716408  .00094728  00000+0  10336-2 0  9990", "line2": "2 45206  53.0394   5.9836 0010516 141.8541 218.3218 15.62560530345438"}, {"name": "STARLINK-1231", "line1": "1 45212U 20012AL  26136.49232395  .00030822  00000+0  11779-2 0  9995", "line2": "2 45212  53.0376  62.9914 0004143  38.0797 322.0493 15.26368516345566"}, {"name": "STARLINK-1271", "line1": "1 45217U 20012AR  26136.54281037  .00026818  00000+0  83542-3 0  9991", "line2": "2 45217  53.1591  68.4132 0002222  86.8942 273.2314 15.33103358345550"}, {"name": "STARLINK-1191", "line1": "1 45222U 20012AW  26136.44860486  .00031947  00000+0  88139-3 0  9993", "line2": "2 45222  53.1562  42.4715 0004756 110.0687 250.0829 15.36828860345912"}, {"name": "STARLINK-1212", "line1": "1 45223U 20012AX  26136.55628288  .00043835  00000+0  44436-3 0  9999", "line2": "2 45223  53.0419  20.0741 0004313  85.7792 274.3715 15.64816310346224"}, {"name": "STARLINK-1215", "line1": "1 45225U 20012AZ  26136.21749619  .00034197  00000+0  10564-2 0  9991", "line2": "2 45225  53.1580  44.2131 0002398 126.4274 233.6949 15.33244709345821"}, {"name": "STARLINK-1221", "line1": "1 45227U 20012BB  26135.88128977  .00012225  00000+0  27185-3 0  9999", "line2": "2 45227  53.0654 310.6461 0002331 188.2143 171.8825 15.44091350347088"}, {"name": "STARLINK-1222", "line1": "1 45228U 20012BC  26136.38254421  .00033291  00000+0  51838-3 0  9998", "line2": "2 45228  53.0544  17.2345 0000999  66.8410 293.2705 15.53605226346138"}, {"name": "STARLINK-1226", "line1": "1 45229U 20012BD  26136.24263064  .00037083  00000+0  87477-3 0  9998", "line2": "2 45229  53.1577  41.5222 0003538 123.9216 236.2127 15.41556288345809"}, {"name": "STARLINK-1227", "line1": "1 45230U 20012BE  26136.44868415  .00038738  00000+0  90911-3 0  9998", "line2": "2 45230  53.1560  40.6801 0004062 120.9953 239.1453 15.41689387345951"}, {"name": "STARLINK-1246", "line1": "1 45235U 20012BK  26136.57984258  .00036870  00000+0  11397-2 0  9996", "line2": "2 45235  53.1580  83.4673 0003351 105.0006 255.1367 15.33184723345376"}, {"name": "STARLINK-1270", "line1": "1 45237U 20012BM  26136.16759329  .00081886  00000+0  10660-2 0  9991", "line2": "2 45237  53.0423  22.4086 0003951 112.5558 247.5872 15.58060836346153"}, {"name": "STARLINK-1279", "line1": "1 45360U 20019A   26136.21936614  .00065045  00000+0  50127-3 0  9997", "line2": "2 45360  53.0352 127.4517 0009456  34.8892 325.2743 15.71329988341246"}]